[{"OBJECT_NAME":"ION SCV-008","OBJECT_ID":"2023-001AU","EPOCH":"2026-03-09T19:46:58.662912","MEAN_MOTION":15.2722664,"ECCENTRICITY":0.00151921,"INCLINATION":97.5676,"RA_OF_ASC_NODE":163.606,"ARG_OF_PERICENTER":8.542,"MEAN_ANOMALY":351.6074,"EPHEMERIS_TYPE":0,"CLASSIFICATION_TYPE":"U","NORAD_CAT_ID":55051,"ELEMENT_SET_NO":999,"REV_AT_EPOCH":17616,"BSTAR":0.00031422806,"MEAN_MOTION_DOT":8.336e-5,"MEAN_MOTION_DDOT":0},{"OBJECT_NAME":"STARLINK-34181","OBJECT_ID":"2025-111X","EPOCH":"2026-03-09T10:20:04.255584","MEAN_MOTION":15.27619505,"ECCENTRICITY":0.00015869,"INCLINATION":42.998,"RA_OF_ASC_NODE":79.3386,"ARG_OF_PERICENTER":254.8289,"MEAN_ANOMALY":105.2387,"EPHEMERIS_TYPE":0,"CLASSIFICATION_TYPE":"U","NORAD_CAT_ID":64144,"ELEMENT_SET_NO":999,"REV_AT_EPOCH":4542,"BSTAR":0.0011024311,"MEAN_MOTION_DOT":0.00030236,"MEAN_MOTION_DDOT":0}]
